FENGYUN 1C DEB          
1 31683U 99025CCR 17344.21393460  .00001355  00000-0  42002-3 0  9998
2 31683  98.7601 345.3769 0074303 107.0985 253.8358 14.41238314551510
